ALSAT-1N                
1 41789U 16059G   26085.98259587  .00001008  00000+0  17832-3 0  9996
2 41789  97.8041  92.9978 0027534  90.5627 269.8734 14.69154947507937
CAS-2T & KS-1Q          
1 41847U 16066G   26085.60816528  .00001017  00000+0  15136-3 0  9997
2 41847  98.3862 162.2708 0342787  20.3027 341.1419 14.44513957492879
YUNHAI-1 01             
1 41857U 16068A   26085.96672102  .00000111  00000+0  56890-4 0  9994
2 41857  98.5890  97.7246 0004112 280.3366  79.7354 14.32679781490058
RESOURCESAT-2A          
1 41877U 16074A   26085.93450466 -.00000186  00000+0 -64622-4 0  9993
2 41877  98.7569 160.0958 0001588 350.7236   9.3912 14.21606195482610
TANSAT                  
1 41898U 16081A   26086.00367148  .00000105  00000+0  32529-4 0  9997
2 41898  98.5376  83.8399 0019919 200.0339 160.0081 14.59881859492634
JILIN-1 03              
1 41914U 17002B   26085.98918172  .00015136  00000+0  38725-3 0  9998
2 41914  97.1995  94.3437 0008260 105.5812 254.6346 15.39477865509200
CARTOSAT-2D             
1 41948U 17008A   26085.43442012  .00000176  00000+0  11555-4 0  9997
2 41948  97.4195 146.2461 0005349 160.4358 199.7083 15.19245054505019
CARTOSAT-2E             
1 42767U 17036C   26085.71488051 -.00000483  00000+0 -19782-4 0  9995
2 42767  97.4363 146.8379 0002518 219.7651 140.3399 15.19214614485623
D-SAT                   
1 42794U 17036AF  26085.88386795  .00010174  00000+0  48818-3 0  9992
2 42794  97.5505  65.1180 0085601  86.9402 274.1621 15.15817093478382
IRIDIUM 113             
1 42803U 17039A   26085.28561152  .00000316  00000+0  10591-3 0  9996
2 42803  86.4031 356.8243 0002036  78.1128 282.0296 14.34220471459308
NORSAT 2                
1 42828U 17042D   26085.46671947  .00010919  00000+0  50740-3 0  9991
2 42828  97.3997 260.3429 0009290 347.5624  12.5381 15.20122869475166
TECHNOSAT               
1 42829U 17042E   26085.92183119  .00004415  00000+0  31905-3 0  9998
2 42829  97.4182 246.7838 0018010  18.7979 341.3909 15.04422205474332
FLYING LAPTOP           
1 42831U 17042G   26085.98223437  .00004052  00000+0  32365-3 0  9993
2 42831  97.4326 244.8935 0020097  41.8553 318.4204 15.00629951474128
WNISAT 1R               
1 42835U 17042L   26085.92540150  .00003838  00000+0  30228-3 0  9992
2 42835  97.4596 245.0904 0013559  77.9722 282.3022 15.01289845474169
LEMUR-2-GREENBERG       
1 42837U 17042N   26085.94354023  .00018102  00000+0  65134-3 0  9992
2 42837  97.3795 267.1176 0008120 297.9066  62.1351 15.28627119475811
LEMUR-2-FURIAUS         
1 42840U 17042R   26085.41297199  .00021525  00000+0  81163-3 0  9991
2 42840  97.3760 264.7482 0006943 358.5251   1.5966 15.27055330475561
CORVUS BC2              
1 42846U 17042X   26085.93994273  .00004829  00000+0  33705-3 0  9998
2 42846  97.3971 250.5568 0013756  38.2192 322.0008 15.05735202474684
CORVUS BC1              
1 42847U 17042Y   26085.94409149  .00004137  00000+0  28794-3 0  9997
2 42847  97.4003 251.3195 0012181  16.1373 344.0240 15.05935545474712
VRSS-2                  
1 42954U 17060A   26085.96946791  .00000380  00000+0  55380-4 0  9995
2 42954  97.6623 127.3666 0017501  14.0981 346.0718 14.81052743456286
MOHAMMED VI-A           
1 43005U 17070A   26085.97206185  .00000906  00000+0  13554-3 0  9991
2 43005  97.9399 159.4466 0001327  74.4706 285.6650 14.77073073451849
FENGYUN 3D              
1 43010U 17072A   26085.97321742  .00000348  00000+0  18639-3 0  9995
2 43010  99.0062  58.9429 0000676 322.3805  37.7323 14.19720855433327
CZ-4C R/B               
1 43012U 17072C   26085.86747441  .00000424  00000+0  92612-4 0  9992
2 43012  98.5708 191.2115 0123343  45.9107 315.2164 14.58713194444637
NOAA 20 (JPSS-1)        
1 43013U 17073A   26085.88578292  .00000083  00000+0  60134-4 0  9997
2 43013  98.7710  26.1040 0001833 114.6553 245.4814 14.19540462432797
MAKERSAT 0              
1 43016U 17073D   26085.92337727  .00021261  00000+0  62943-3 0  9991
2 43016  97.4756 327.9663 0114512 204.1226 155.4627 15.28553629453885
RADFXSAT (FOX-1B)       
1 43017U 17073E   26085.08419278  .00007766  00000+0  35189-3 0  9997
2 43017  97.4836 314.0364 0152973 255.1240 103.3006 15.11204356452834
JILIN-1 04              
1 43022U 17074A   26085.96383642  .00015678  00000+0  39135-3 0  9992
2 43022  97.4769 193.5621 0005389 126.6919 233.4823 15.40252334461602
JILIN-1 05              
1 43023U 17074B   26085.95541866  .00007224  00000+0  23125-3 0  9996
2 43023  97.4784 191.1153 0006110 148.3470 211.8141 15.32690517461401
JILIN-1 06              
1 43024U 17074C   26085.92511400  .00007174  00000+0  22950-3 0  9994
2 43024  97.4718 188.1763 0007590 161.4114 198.7407 15.32704272461239
IRIDIUM 116             
1 43072U 17083C   26085.67882469  .00000283  00000+0  94028-4 0  9995
2 43072  86.4024 356.4893 0002388  89.8774 270.2696 14.34214408432343
IRIDIUM 130             
1 43073U 17083D   26085.71688881  .00000317  00000+0  10602-3 0  9996
2 43073  86.4033 356.7404 0002185  92.0434 268.1012 14.34218284432297
LKW-2                   
1 43080U 17084A   26085.98502752  .00005710  00000+0  23017-3 0  9992
2 43080  97.1306 129.6465 0002925 135.7984 224.3489 15.25198889459153
SUPERVIEW-1 03          
1 43099U 18002A   26085.92713326  .00022432  00000+0  60171-3 0  9990
2 43099  97.3145 171.0488 0051102 117.1258 243.5211 15.36621997455729
CARTOSAT-2F             
1 43111U 18004A   26085.94441454  .00003488  00000+0  16872-3 0  9998
2 43111  97.4128 146.7897 0001800 149.9487 210.1851 15.19252432454843
LKW-3                   
1 43146U 18006A   26085.95081693  .00013857  00000+0  42981-3 0  9995
2 43146  97.6513 243.4595 0002367 220.7241 139.3824 15.33526797456103
ASNARO-2                
1 43152U 18007A   26085.96093176  .00002608  00000+0  11597-3 0  9994
2 43152  97.4022  94.1530 0001768  88.8370 271.3069 15.22387053454905
JILIN-1 07              
1 43159U 18008E   26085.96840610  .00009601  00000+0  30018-3 0  9994
2 43159  97.1857 108.1408 0008331   8.7690 351.3697 15.33319065452391
JILIN-1 08              
1 43160U 18008F   26085.98659006  .00008479  00000+0  27230-3 0  9999
2 43160  97.1884 107.5499 0006682  26.8528 333.3059 15.32508278452357
LEMUR-2-KADI            
1 43184U 18014E   26085.34833984  .00101990  00000+0  92830-3 0  9991
2 43184  97.4642  11.0286 0004547 133.4845 226.6795 15.67603672447993
S-NET D                 
1 43186U 18014G   26085.70669038  .00005050  00000+0  26750-3 0  9998
2 43186  97.5415 351.0362 0007006 313.6792  46.3860 15.15838737446266
S-NET B                 
1 43187U 18014H   26085.71655242  .00005028  00000+0  26653-3 0  9999
2 43187  97.5422 351.0301 0007525 307.5702  52.4847 15.15811717446269
S-NET A                 
1 43188U 18014J   26085.70595502  .00005080  00000+0  26900-3 0  9994
2 43188  97.5432 351.2131 0007445 308.4596  51.5967 15.15845834446266
S-NET C                 
1 43189U 18014K   26085.91801754  .00005699  00000+0  30160-3 0  9996
2 43189  97.5450 351.4856 0008650 297.8347  62.2009 15.15808017444847
PAZ                     
1 43215U 18020A   26085.96925525  .00002454  00000+0  11999-3 0  9996
2 43215  97.4460  94.5231 0001749  88.6431 271.5004 15.19154116448528
GOES 17                 
1 43226U 18022A   26085.88699750 -.00000199  00000+0  00000+0 0  9991
2 43226   0.7264  86.9744 0001604 232.7288  94.4360  1.00271315 29590
LKW-4                   
1 43236U 18025A   26085.92750820  .00043213  00000+0  62219-3 0  9993
2 43236  97.6291 250.7879 0003166 231.1367 128.9604 15.55920941447210
ZHUHAI-1 OVS-02         
1 43440U 18040B   26085.98608691  .00006740  00000+0  28148-3 0  9998
2 43440  97.0477 108.1240 0004094 160.3513 199.7884 15.23928516440199
ZHUHAI-1 OHS-02         
1 43441U 18040C   26086.01444300  .00007853  00000+0  31992-3 0  9996
2 43441  97.0475 115.0086 0010601 153.0452 207.1339 15.24673117101755
GAOFEN-6                
1 43484U 18048A   26085.94036223  .00000616  00000+0  95120-4 0  9997
2 43484  97.7835 151.6091 0013662  84.3525 275.9243 14.76624753421253
LUOJIA-1 01             
1 43485U 18048B   26085.95193352  .00000691  00000+0  83242-4 0  9991
2 43485  97.8126 165.4709 0009764  39.5006 320.6920 14.86955139421998
PAKTES 1A               
1 43529U 18056A   26085.95994759  .00004264  00000+0  35883-3 0  9996
2 43529  98.1145 239.0192 0021227  27.7285 332.5063 14.98656463419608
PRSS-1                  
1 43530U 18056B   26085.94901139  .00000869  00000+0  11646-3 0  9995
2 43530  97.7880 156.0799 0001227  90.1896 269.9458 14.81848521416251
HAIYANG-1C              
1 43609U 18068A   26085.91995598 -.00000093  00000+0 -17718-4 0  9992
2 43609  98.5240 159.3994 0010431 345.0788  15.0088 14.34151216395294
SSTL S1-4               
1 43618U 18071A   26085.89460777 -.00000631  00000+0 -51212-4 0  9994
2 43618  97.5156 320.8746 0002135  91.5533 268.5933 14.96157654410632
HAIYANG-2B              
1 43655U 18081A   26085.97661414  .00000042  00000+0  84193-4 0  9994
2 43655  99.3337  95.9632 0001761 116.5228 243.6105 13.79308674373599
CZ-4B R/B               
1 43656U 18081B   26085.30945001  .00000114  00000+0  50676-4 0  9998
2 43656  99.3705 356.6282 0205299 145.2961 216.1813 14.31828758387441
CFOSAT                  
1 43662U 18083A   26086.00549088  .00003824  00000+0  20064-3 0  9998
2 43662  97.3637  92.9477 0001757 108.1223 252.0202 15.16323043409984
TEN-KOH                 
1 43677U 18084G   26085.95701149  .00002073  00000+0  16081-3 0  9995
2 43677  98.0769 274.8668 0010464  38.7078 321.4893 15.02546384403811
DIWATA-2B               
1 43678U 18084H   26085.99951760  .00003309  00000+0  27049-3 0  9995
2 43678  98.1045 278.7469 0013398  75.4790 284.7918 15.00048229403890
STARS-AO                
1 43679U 18084J   26085.53364597  .00006774  00000+0  35585-3 0  9995
2 43679  98.0605 294.4221 0003420  90.2851 269.8772 15.16062695404940
